0 PSLV R/B
1 39200U 13034B   13281.52620679  .00006571  00000-0  97458-3 0   746
2 39200 017.8887 065.2430 6082155 322.0293 007.7691 03.93400800  3867
0 PSLV R/B
1 39200U 13034B   13285.59209990  .00006354  00000-0  97458-3 0   756
2 39200 017.8828 062.0371 6081038 327.9957 006.6232 03.93465022  4026
0 PSLV R/B
1 39200U 13034B   13286.35423574  .00006427  00000-0  97458-3 0   769
2 39200 017.8558 061.3379 6081505 329.1548 006.2266 03.93477390  4052
0 PSLV R/B
1 39200U 13034B   13286.60827987  .00005871  00000-0  97458-3 0   776
2 39200 017.8778 061.1906 6078737 329.5496 006.0801 03.93481217  4066
0 PSLV R/B
1 39200U 13034B   13287.37053271  .00005548  00000-0  97458-3 0   780
2 39200 017.8842 060.6125 6077067 330.6754 005.8643 03.93496195  4095
0 PSLV R/B
1 39200U 13034B   13288.38681134  .00005718  00000-0  97458-3 0   797
2 39200 017.8885 059.8210 6078126 332.1292 005.5544 03.93512160  4131
0 PSLV R/B
1 39200U 13034B   13289.40304806  .00005910  00000-0  97458-3 0   805
2 39200 017.8913 059.0024 6079154 333.6202 005.2484 03.93528721  4171
0 PSLV R/B
1 39200U 13034B   13292.45144648  .00008407  00000-0  13162-2 0   814
2 39200 017.8774 056.6967 6079799 337.9234 004.3299 03.93604223  4291
0 PSLV R/B
1 39200U 13034B   13293.46746926  .00008102  00000-0  13162-2 0   826
2 39200 017.8864 055.8168 6078489 339.5406 004.0096 03.93609969  4338
0 PSLV R/B
1 39200U 13034B   13294.48347872  .00008803  00000-0  13162-2 0   835
2 39200 017.8777 054.9886 6080777 340.9756 003.7700 03.93633087  4375
0 PSLV R/B
1 39200U 13034B   13295.49939307  .00008864  00000-0  13162-2 0   845
2 39200 017.8831 054.2084 6080749 342.4400 003.4472 03.93652940  4418
